NORAD_CAT_ID,OBJECT_NAME,OBJECT_TYPE,EPOCH,MEAN_MOTION,ECCENTRICITY,INCLINATION,RA_OF_ASC_NODE,ARG_OF_PERICENTER,MEAN_ANOMALY,BSTAR,MEAN_MOTION_DOT,MEAN_MOTION_DDOT,TLE_LINE0,TLE_LINE1,TLE_LINE2,SEMIMAJOR_AXIS,PERIOD,APOGEE,PERIGEE,DECAYED
51128.0,STARLINK-3400,PAYLOAD,2023-06-11 22:04:56,15.08816829,0.0001026,53.2168,116.2378,99.0844,261.0265,-5.0945e-05,-1.098e-05,0.0,0 STARLINK-3400,1 51128U 22005AA  23162.92010253 -.00001098  00000-0 -50945-4 0  9999,2 51128  53.2168 116.2378 0001026  99.0844 261.0265 15.08816829 78617,6917.951,95.439,540.526,539.106,0.0
51128.0,STARLINK-3400,PAYLOAD,2023-06-12 06:01:52,15.08824756,0.0001133,53.2165,114.7501,94.8202,265.2919,-2.5117e-05,-6.87e-06,0.0,0 STARLINK-3400,1 51128U 22005AA  23163.25130085 -.00000687  00000-0 -25117-4 0  9998,2 51128  53.2165 114.7501 0001133  94.8202 265.2919 15.08824756 78660,6917.927,95.439,540.576,539.008,0.0
51128.0,STARLINK-3400,PAYLOAD,2023-06-12 13:58:47,15.08831394,0.0001014,53.2174,113.2649,103.0816,257.0289,2.3841e-05,9.2e-07,0.0,0 STARLINK-3400,1 51128U 22005AA  23163.58249699  .00000092  00000-0  23841-4 0  9996,2 51128  53.2174 113.2649 0001014 103.0816 257.0289 15.08831394 78710,6917.907,95.438,540.473,539.07,0.0
51128.0,STARLINK-3400,PAYLOAD,2023-06-13 02:41:52,15.08839789,9.51e-05,53.2173,110.8858,100.4724,259.6375,8.2403e-05,1.024e-05,0.0,0 STARLINK-3400,1 51128U 22005AA  23164.11241162  .00001024  00000-0  82403-4 0  9998,2 51128  53.2173 110.8858 0000951 100.4724 259.6375 15.08839789 78790,6917.881,95.438,540.404,539.088,0.0
51128.0,STARLINK-3400,PAYLOAD,2023-06-13 05:52:38,15.08844007,0.0001018,53.217,110.2912,88.949,271.1618,9.1392e-05,1.167e-05,0.0,0 STARLINK-3400,1 51128U 22005AA  23164.24488908  .00001167  00000-0  91392-4 0  9998,2 51128  53.2170 110.2912 0001018  88.9490 271.1618 15.08844007 77693,6917.868,95.437,540.437,539.029,0.0
51128.0,STARLINK-3400,PAYLOAD,2023-06-13 20:11:06,15.08834933,9.55e-05,53.2173,107.6142,99.918,260.192,0.00022178,3.243e-05,0.0,0 STARLINK-3400,1 51128U 22005AA  23164.84104962  .00003243  00000-0  22178-3 0  9991,2 51128  53.2173 107.6142 0000955  99.9180 260.1920 15.08834933 77789,6917.896,95.438,540.422,539.1,0.0
51128.0,STARLINK-3400,PAYLOAD,2023-06-14 02:32:39,15.08827269,9.67e-05,53.2173,106.4234,107.68,252.4298,0.00039544,6.009e-05,0.0,0 STARLINK-3400,1 51128U 22005AA  23165.10601125  .00006009  00000-0  39544-3 0  9992,2 51128  53.2173 106.4234 0000967 107.6800 252.4298 15.08827269 78942,6917.919,95.438,540.453,539.115,0.0
51128.0,STARLINK-3400,PAYLOAD,2023-06-14 20:01:53,15.08843281,0.0001084,53.2163,103.1528,107.0489,253.0622,2.8225e-05,1.61e-06,0.0,0 STARLINK-3400,1 51128U 22005AA  23165.83465064  .00000161  00000-0  28225-4 0  9990,2 51128  53.2163 103.1528 0001084 107.0489 253.0622 15.08843281 77937,6917.87,95.437,540.485,538.985,0.0
51128.0,STARLINK-3400,PAYLOAD,2023-06-15 05:34:12,15.08842974,9.27e-05,53.2175,101.3685,94.6003,265.5095,-2.1955e-05,-6.37e-06,0.0,0 STARLINK-3400,1 51128U 22005AA  23166.23209188 -.00000637  00000-0 -21955-4 0  9991,2 51128  53.2175 101.3685 0000927  94.6003 265.5095 15.08842974 79114,6917.871,95.437,540.378,539.095,0.0
51128.0,STARLINK-3400,PAYLOAD,2023-06-16 02:14:12,15.0885379,8.89e-05,53.2171,97.5029,89.2358,270.8736,2.9838e-05,1.87e-06,0.0,0 STARLINK-3400,1 51128U 22005AA  23167.09320047  .00000187  00000-0  29838-4 0  9990,2 51128  53.2171  97.5029 0000889  89.2358 270.8736 15.08853790 79241,6917.838,95.437,540.318,539.088,0.0
51128.0,STARLINK-3400,PAYLOAD,2023-06-16 03:49:35,15.088636,0.0001205,53.2175,97.2057,102.8526,257.2601,-4.8271e-05,-1.057e-05,0.0,0 STARLINK-3400,1 51128U 22005AA  23167.15943603 -.00001057  00000-0 -48271-4 0  9997,2 51128  53.2175  97.2057 0001205 102.8526 257.2601 15.08863600 79257,6917.808,95.436,540.507,538.84,0.0
51128.0,STARLINK-3400,PAYLOAD,2023-06-16 19:43:27,15.08842369,0.0001045,53.2179,94.2335,87.0683,273.0428,8.339e-05,1.04e-05,0.0,0 STARLINK-3400,1 51128U 22005AA  23167.82184311  .00001040  00000-0  83390-4 0  9995,2 51128  53.2179  94.2335 0001045  87.0683 273.0428 15.08842369 78236,6917.873,95.437,540.461,539.015,0.0
51128.0,STARLINK-3400,PAYLOAD,2023-06-17 02:04:58,15.08851769,9.61e-05,53.2173,93.043,91.3503,268.7599,0.0001511,2.119e-05,0.0,0 STARLINK-3400,1 51128U 22005AA  23168.08679358  .00002119  00000-0  15110-3 0  9996,2 51128  53.2173  93.0430 0000961  91.3503 268.7599 15.08851769 79390,6917.844,95.437,540.374,539.045,0.0
51128.0,STARLINK-3400,PAYLOAD,2023-06-17 11:37:19,15.08832868,0.0001487,53.2175,91.2586,84.4018,275.7144,-1.787e-05,-5.72e-06,0.0,0 STARLINK-3400,1 51128U 22005AA  23168.48425129 -.00000572  00000-0 -17870-4 0  9994,2 51128  53.2175  91.2586 0001487  84.4018 275.7144 15.08832868 78338,6917.902,95.438,540.796,538.738,0.0
51128.0,STARLINK-3400,PAYLOAD,2023-06-18 01:55:48,15.08821231,0.0001292,53.2182,88.5892,110.31,249.8031,-0.00020613,-3.565e-05,0.0,0 STARLINK-3400,1 51128U 22005AA  23169.08042803 -.00003565  00000-0 -20613-3 0  9998,2 51128  53.2182  88.5892 0001292 110.3100 249.8031 15.08821231 79543,6917.938,95.439,540.697,538.909,0.0
51128.0,STARLINK-3400,PAYLOAD,2023-06-18 11:28:07,15.08829631,0.0001101,53.2185,86.8003,89.722,270.3898,-9.5032e-05,-1.799e-05,0.0,0 STARLINK-3400,1 51128U 22005AA  23169.47786311 -.00001799  00000-0 -95032-4 0  9995,2 51128  53.2185  86.8003 0001101  89.7220 270.3898 15.08829631 78486,6917.912,95.438,540.539,539.015,0.0
51128.0,STARLINK-3400,PAYLOAD,2023-06-18 17:49:39,15.08835558,9.17e-05,53.2173,85.6085,85.4588,274.6509,-6.1427e-05,-1.265e-05,0.0,0 STARLINK-3400,1 51128U 22005AA  23169.74282000 -.00001265  00000-0 -61427-4 0  9990,2 51128  53.2173  85.6085 0000917  85.4588 274.6509 15.08835558 79644,6917.894,95.438,540.393,539.125,0.0
51128.0,STARLINK-3400,PAYLOAD,2023-06-19 03:21:57,15.08847465,9.68e-05,53.2175,83.8249,89.6228,270.4875,7.4792e-05,9.03e-06,0.0,0 STARLINK-3400,1 51128U 22005AA  23170.14025019  .00000903  00000-0  74792-4 0  9996,2 51128  53.2175  83.8249 0000968  89.6228 270.4875 15.08847465 79708,6917.858,95.437,540.392,539.053,0.0
51128.0,STARLINK-3400,PAYLOAD,2023-06-20 03:12:44,15.08849283,9.92e-05,53.2171,79.3648,80.6652,279.4452,0.00040799,6.213e-05,0.0,0 STARLINK-3400,1 51128U 22005AA  23171.13385227  .00006213  00000-0  40799-3 0  9995,2 51128  53.2171  79.3648 0000992  80.6652 279.4452 15.08849283 78738,6917.852,95.437,540.403,539.031,0.0
51128.0,STARLINK-3400,PAYLOAD,2023-06-20 17:31:13,15.08843907,0.0001222,53.2169,76.689,80.837,279.2761,0.00012166,1.649e-05,0.0,0 STARLINK-3400,1 51128U 22005AA  23171.73001622  .00001649  00000-0  12166-3 0  9990,2 51128  53.2169  76.6890 0001222  80.8370 279.2761 15.08843907 79942,6917.868,95.437,540.579,538.888,0.0
51128.0,STARLINK-3400,PAYLOAD,2023-06-21 11:00:27,15.08844321,9.97e-05,53.2163,73.4176,79.2887,280.8217,6.7733e-05,7.9e-06,0.0,0 STARLINK-3400,1 51128U 22005AA  23172.45865352  .00000790  00000-0  67733-4 0  9995,2 51128  53.2163  73.4176 0000997  79.2887 280.8217 15.08844321 78934,6917.867,95.437,540.422,539.042,0.0
51128.0,STARLINK-3400,PAYLOAD,2023-06-21 20:32:46,15.08840055,0.0001126,53.2171,71.6336,89.8222,270.2899,-3.5825e-05,-8.58e-06,0.0,0 STARLINK-3400,1 51128U 22005AA  23172.85609592 -.00000858  00000-0 -35825-4 0  9995,2 51128  53.2171  71.6336 0001126  89.8222 270.2899 15.08840055 78991,6917.88,95.438,540.524,538.966,0.0
51128.0,STARLINK-3400,PAYLOAD,2023-06-21 23:43:32,15.08845431,0.0001125,53.2176,71.0386,93.2037,266.9084,-1.359e-05,-5.04e-06,0.0,0 STARLINK-3400,1 51128U 22005AA  23172.98857410 -.00000504  00000-0 -13590-4 0  9996,2 51128  53.2176  71.0386 0001125  93.2037 266.9084 15.08845431 80137,6917.864,95.437,540.507,538.951,0.0
51128.0,STARLINK-3400,PAYLOAD,2023-06-23 02:45:05,15.08849273,0.0001137,53.2175,65.9815,92.0932,268.0191,0.00019292,2.785e-05,0.0,0 STARLINK-3400,1 51128U 22005AA  23174.11465235  .00002785  00000-0  19292-3 0  9998,2 51128  53.2175  65.9815 0001137  92.0932 268.0191 15.08849273 80308,6917.852,95.437,540.504,538.93,0.0
51128.0,STARLINK-3400,PAYLOAD,2023-06-23 17:03:34,15.08839669,0.0001213,53.2171,63.3048,96.1273,263.9857,0.0001152,1.546e-05,0.0,0 STARLINK-3400,1 51128U 22005AA  23174.71081723  .00001546  00000-0  11520-3 0  9990,2 51128  53.2171  63.3048 0001213  96.1273 263.9857 15.08839669 80392,6917.881,95.438,540.586,538.907,0.0
51128.0,STARLINK-3400,PAYLOAD,2023-06-25 02:26:40,15.08848015,0.0001128,53.2167,57.063,89.603,270.5091,0.00010194,1.335e-05,0.0,0 STARLINK-3400,1 51128U 22005AA  23176.10185301  .00001335  00000-0  10194-3 0  9994,2 51128  53.2167  57.0630 0001128  89.6030 270.5091 15.08848015 80600,6917.856,95.437,540.501,538.941,0.0
51128.0,STARLINK-3400,PAYLOAD,2023-06-25 16:45:09,15.08833891,0.0001159,53.217,54.3862,86.9218,273.1907,-4.7923e-06,-3.64e-06,0.0,0 STARLINK-3400,1 51128U 22005AA  23176.69802140 -.00000364  00000-0 -47923-5 0  9990,2 51128  53.2170  54.3862 0001159  86.9218 273.1907 15.08833891 80693,6917.899,95.438,540.566,538.962,0.0
51128.0,STARLINK-3400,PAYLOAD,2023-06-26 00:42:04,15.08842701,0.0001163,53.2187,52.9021,81.2252,278.8871,0.00010244,1.343e-05,0.0,0 STARLINK-3400,1 51128U 22005AA  23177.02921665  .00001343  00000-0  10244-3 0  9992,2 51128  53.2187  52.9021 0001163  81.2252 278.8871 15.08842701 80741,6917.872,95.437,540.542,538.933,0.0
51128.0,STARLINK-3400,PAYLOAD,2023-06-26 08:39:00,15.08839333,0.0001136,53.2181,51.4162,93.4484,266.6638,4.1562e-05,3.74e-06,0.0,0 STARLINK-3400,1 51128U 22005AA  23177.36042176  .00000374  00000-0  41562-4 0  9991,2 51128  53.2181  51.4162 0001136  93.4484 266.6638 15.08839333 80795,6917.882,95.438,540.533,538.962,0.0
51128.0,STARLINK-3400,PAYLOAD,2023-06-26 16:35:56,15.08832579,0.0001178,53.2184,49.9281,98.2188,261.8937,4.5374e-05,4.34e-06,0.0,0 STARLINK-3400,1 51128U 22005AA  23177.69162729  .00000434  00000-0  45374-4 0  9996,2 51128  53.2184  49.9281 0001178  98.2188 261.8937 15.08832579 80842,6917.903,95.438,540.583,538.953,0.0
